[{"OBJECT_NAME":"STARLINK-37446","OBJECT_ID":"2026-089G","EPOCH":"2026-04-29T06:00:02.999808","MEAN_MOTION":15.9513616,"ECCENTRICITY":0.00017817,"INCLINATION":97.2852,"RA_OF_ASC_NODE":324.5457,"ARG_OF_PERICENTER":81.0504,"MEAN_ANOMALY":36.827,"EPHEMERIS_TYPE":0,"CLASSIFICATION_TYPE":"U","NORAD_CAT_ID":68808,"ELEMENT_SET_NO":999,"REV_AT_EPOCH":213,"BSTAR":-0.0060039891,"MEAN_MOTION_DOT":-0.02302735,"MEAN_MOTION_DDOT":0.0014754597},{"OBJECT_NAME":"STARLINK-37405","OBJECT_ID":"2026-089H","EPOCH":"2026-04-29T06:00:02.999808","MEAN_MOTION":15.95303604,"ECCENTRICITY":0.00018402,"INCLINATION":97.285,"RA_OF_ASC_NODE":324.5468,"ARG_OF_PERICENTER":77.9355,"MEAN_ANOMALY":41.9741,"EPHEMERIS_TYPE":0,"CLASSIFICATION_TYPE":"U","NORAD_CAT_ID":68809,"ELEMENT_SET_NO":999,"REV_AT_EPOCH":219,"BSTAR":-0.0059434971,"MEAN_MOTION_DOT":-0.02300023,"MEAN_MOTION_DDOT":0.001474927},{"OBJECT_NAME":"STARLINK-37447","OBJECT_ID":"2026-089J","EPOCH":"2026-04-29T06:00:02.999808","MEAN_MOTION":15.95464427,"ECCENTRICITY":0.00017735,"INCLINATION":97.2848,"RA_OF_ASC_NODE":324.5476,"ARG_OF_PERICENTER":79.3244,"MEAN_ANOMALY":42.7028,"EPHEMERIS_TYPE":0,"CLASSIFICATION_TYPE":"U","NORAD_CAT_ID":68810,"ELEMENT_SET_NO":999,"REV_AT_EPOCH":213,"BSTAR":-0.0058511708,"MEAN_MOTION_DOT":-0.02283935,"MEAN_MOTION_DDOT":0.0014577304},{"OBJECT_NAME":"STARLINK-37442","OBJECT_ID":"2026-089K","EPOCH":"2026-04-29T06:00:02.999808","MEAN_MOTION":15.95628318,"ECCENTRICITY":0.00018478,"INCLINATION":97.2848,"RA_OF_ASC_NODE":324.5483,"ARG_OF_PERICENTER":75.8216,"MEAN_ANOMALY":48.1316,"EPHEMERIS_TYPE":0,"CLASSIFICATION_TYPE":"U","NORAD_CAT_ID":68811,"ELEMENT_SET_NO":999,"REV_AT_EPOCH":219,"BSTAR":-0.0057769605,"MEAN_MOTION_DOT":-0.02274943,"MEAN_MOTION_DDOT":0.0014493851},{"OBJECT_NAME":"STARLINK-37431","OBJECT_ID":"2026-089L","EPOCH":"2026-04-29T06:00:02.999808","MEAN_MOTION":15.95790313,"ECCENTRICITY":0.00018054,"INCLINATION":97.2845,"RA_OF_ASC_NODE":324.5492,"ARG_OF_PERICENTER":83.7395,"MEAN_ANOMALY":42.2405,"EPHEMERIS_TYPE":0,"CLASSIFICATION_TYPE":"U","NORAD_CAT_ID":68812,"ELEMENT_SET_NO":999,"REV_AT_EPOCH":213,"BSTAR":-0.0057188102,"MEAN_MOTION_DOT":-0.022717,"MEAN_MOTION_DDOT":0.0014480894},{"OBJECT_NAME":"STARLINK-37426","OBJECT_ID":"2026-089M","EPOCH":"2026-04-29T06:00:02.999808","MEAN_MOTION":15.95947156,"ECCENTRICITY":0.00018076,"INCLINATION":97.2846,"RA_OF_ASC_NODE":324.5501,"ARG_OF_PERICENTER":83.3848,"MEAN_ANOMALY":44.4483,"EPHEMERIS_TYPE":0,"CLASSIFICATION_TYPE":"U","NORAD_CAT_ID":68813,"ELEMENT_SET_NO":999,"REV_AT_EPOCH":213,"BSTAR":-0.0056403572,"MEAN_MOTION_DOT":-0.022596,"MEAN_MOTION_DDOT":0.00143582},{"OBJECT_NAME":"STARLINK-37459","OBJECT_ID":"2026-089N","EPOCH":"2026-04-29T06:00:02.999808","MEAN_MOTION":15.96110055,"ECCENTRICITY":0.00018027,"INCLINATION":97.2843,"RA_OF_ASC_NODE":324.5508,"ARG_OF_PERICENTER":80.576,"MEAN_ANOMALY":49.2217,"EPHEMERIS_TYPE":0,"CLASSIFICATION_TYPE":"U","NORAD_CAT_ID":68814,"ELEMENT_SET_NO":999,"REV_AT_EPOCH":213,"BSTAR":-0.0055864248,"MEAN_MOTION_DOT":-0.02257719,"MEAN_MOTION_DDOT":0.0014362105},{"OBJECT_NAME":"STARLINK-37425","OBJECT_ID":"2026-089P","EPOCH":"2026-04-29T06:00:02.999808","MEAN_MOTION":15.96426826,"ECCENTRICITY":0.00018816,"INCLINATION":97.2839,"RA_OF_ASC_NODE":324.5524,"ARG_OF_PERICENTER":77.5583,"MEAN_ANOMALY":56.1619,"EPHEMERIS_TYPE":0,"CLASSIFICATION_TYPE":"U","NORAD_CAT_ID":68815,"ELEMENT_SET_NO":999,"REV_AT_EPOCH":213,"BSTAR":-0.005461791,"MEAN_MOTION_DOT":-0.02245559,"MEAN_MOTION_DDOT":0.0014265334},{"OBJECT_NAME":"STARLINK-37315","OBJECT_ID":"2026-089Q","EPOCH":"2026-04-29T06:00:02.999808","MEAN_MOTION":15.96269678,"ECCENTRICITY":0.00018425,"INCLINATION":97.2841,"RA_OF_ASC_NODE":324.5515,"ARG_OF_PERICENTER":79.6585,"MEAN_ANOMALY":51.989,"EPHEMERIS_TYPE":0,"CLASSIFICATION_TYPE":"U","NORAD_CAT_ID":68816,"ELEMENT_SET_NO":999,"REV_AT_EPOCH":213,"BSTAR":-0.005524082,"MEAN_MOTION_DOT":-0.02251893,"MEAN_MOTION_DDOT":0.0014317032},{"OBJECT_NAME":"STARLINK-37444","OBJECT_ID":"2026-089R","EPOCH":"2026-04-29T06:00:02.999808","MEAN_MOTION":15.96582536,"ECCENTRICITY":0.00018197,"INCLINATION":97.2836,"RA_OF_ASC_NODE":324.5529,"ARG_OF_PERICENTER":83.0432,"MEAN_ANOMALY":52.7776,"EPHEMERIS_TYPE":0,"CLASSIFICATION_TYPE":"U","NORAD_CAT_ID":68817,"ELEMENT_SET_NO":999,"REV_AT_EPOCH":219,"BSTAR":-0.0054041094,"MEAN_MOTION_DOT":-0.02240666,"MEAN_MOTION_DDOT":0.001423108},{"OBJECT_NAME":"STARLINK-37450","OBJECT_ID":"2026-089S","EPOCH":"2026-04-29T06:00:02.999808","MEAN_MOTION":15.96736199,"ECCENTRICITY":0.00019339,"INCLINATION":97.2838,"RA_OF_ASC_NODE":324.5538,"ARG_OF_PERICENTER":76.4877,"MEAN_ANOMALY":61.0894,"EPHEMERIS_TYPE":0,"CLASSIFICATION_TYPE":"U","NORAD_CAT_ID":68818,"ELEMENT_SET_NO":999,"REV_AT_EPOCH":213,"BSTAR":-0.0053395745,"MEAN_MOTION_DOT":-0.02232559,"MEAN_MOTION_DDOT":0.0014157152},{"OBJECT_NAME":"STARLINK-37409","OBJECT_ID":"2026-089T","EPOCH":"2026-04-29T06:00:02.999808","MEAN_MOTION":15.96893965,"ECCENTRICITY":0.00018366,"INCLINATION":97.2837,"RA_OF_ASC_NODE":324.5546,"ARG_OF_PERICENTER":82.7135,"MEAN_ANOMALY":56.9232,"EPHEMERIS_TYPE":0,"CLASSIFICATION_TYPE":"U","NORAD_CAT_ID":68819,"ELEMENT_SET_NO":999,"REV_AT_EPOCH":213,"BSTAR":-0.0052919843,"MEAN_MOTION_DOT":-0.02231676,"MEAN_MOTION_DDOT":0.0014172362},{"OBJECT_NAME":"STARLINK-37470","OBJECT_ID":"2026-089U","EPOCH":"2026-04-29T06:00:02.999808","MEAN_MOTION":15.97332082,"ECCENTRICITY":0.00017921,"INCLINATION":97.2834,"RA_OF_ASC_NODE":324.5569,"ARG_OF_PERICENTER":85.2142,"MEAN_ANOMALY":59.7893,"EPHEMERIS_TYPE":0,"CLASSIFICATION_TYPE":"U","NORAD_CAT_ID":68820,"ELEMENT_SET_NO":999,"REV_AT_EPOCH":213,"BSTAR":-0.0050838512,"MEAN_MOTION_DOT":-0.02196034,"MEAN_MOTION_DDOT":0.0013809585},{"OBJECT_NAME":"STARLINK-37421","OBJECT_ID":"2026-089V","EPOCH":"2026-04-29T06:00:02.999808","MEAN_MOTION":15.97046366,"ECCENTRICITY":0.00018418,"INCLINATION":97.2837,"RA_OF_ASC_NODE":324.5559,"ARG_OF_PERICENTER":83.662,"MEAN_ANOMALY":57.7664,"EPHEMERIS_TYPE":0,"CLASSIFICATION_TYPE":"U","NORAD_CAT_ID":68821,"ELEMENT_SET_NO":999,"REV_AT_EPOCH":213,"BSTAR":-0.0052328906,"MEAN_MOTION_DOT":-0.02225199,"MEAN_MOTION_DDOT":0.0014118188},{"OBJECT_NAME":"STARLINK-37462","OBJECT_ID":"2026-089W","EPOCH":"2026-04-29T06:00:02.999808","MEAN_MOTION":15.97181962,"ECCENTRICITY":0.00018137,"INCLINATION":97.2835,"RA_OF_ASC_NODE":324.5563,"ARG_OF_PERICENTER":82.5134,"MEAN_ANOMALY":60.7015,"EPHEMERIS_TYPE":0,"CLASSIFICATION_TYPE":"U","NORAD_CAT_ID":68822,"ELEMENT_SET_NO":999,"REV_AT_EPOCH":213,"BSTAR":-0.0051298905,"MEAN_MOTION_DOT":-0.02197817,"MEAN_MOTION_DDOT":0.0013806961},{"OBJECT_NAME":"STARLINK-37410","OBJECT_ID":"2026-089X","EPOCH":"2026-04-29T06:00:02.999808","MEAN_MOTION":15.97491175,"ECCENTRICITY":0.0001761,"INCLINATION":97.2836,"RA_OF_ASC_NODE":324.5583,"ARG_OF_PERICENTER":82.291,"MEAN_ANOMALY":64.7331,"EPHEMERIS_TYPE":0,"CLASSIFICATION_TYPE":"U","NORAD_CAT_ID":68823,"ELEMENT_SET_NO":999,"REV_AT_EPOCH":213,"BSTAR":-0.0050414028,"MEAN_MOTION_DOT":-0.02196726,"MEAN_MOTION_DDOT":0.0013843746}]
