STARLINK-37446          
1 68808U 26089G   26119.25003472 -.02302735  14755-2 -60040-2 0  9997
2 68808  97.2852 324.5457 0001781  81.0504  36.8270 15.95136160  2139
STARLINK-37405          
1 68809U 26089H   26119.25003472 -.02300023  14749-2 -59435-2 0  9995
2 68809  97.2850 324.5468 0001840  77.9355  41.9741 15.95303604  2199
STARLINK-37447          
1 68810U 26089J   26119.25003472 -.02283935  14577-2 -58512-2 0  9993
2 68810  97.2848 324.5476 0001773  79.3244  42.7028 15.95464427  2137
STARLINK-37442          
1 68811U 26089K   26119.25003472 -.02274943  14494-2 -57770-2 0  9996
2 68811  97.2848 324.5483 0001847  75.8216  48.1316 15.95628318  2195
STARLINK-37431          
1 68812U 26089L   26119.25003472 -.02271700  14481-2 -57188-2 0  9994
2 68812  97.2845 324.5492 0001805  83.7395  42.2405 15.95790313  2136
STARLINK-37426          
1 68813U 26089M   26119.25003472 -.02259600  14358-2 -56404-2 0  9993
2 68813  97.2846 324.5501 0001807  83.3848  44.4483 15.95947156  2139
STARLINK-37459          
1 68814U 26089N   26119.25003472 -.02257719  14362-2 -55864-2 0  9997
2 68814  97.2843 324.5508 0001802  80.5760  49.2217 15.96110055  2130
STARLINK-37425          
1 68815U 26089P   26119.25003472 -.02245559  14265-2 -54618-2 0  9995
2 68815  97.2839 324.5524 0001881  77.5583  56.1619 15.96426826  2139
STARLINK-37315          
1 68816U 26089Q   26119.25003472 -.02251893  14317-2 -55241-2 0  9995
2 68816  97.2841 324.5515 0001842  79.6585  51.9890 15.96269678  2139
STARLINK-37444          
1 68817U 26089R   26119.25003472 -.02240666  14231-2 -54041-2 0  9994
2 68817  97.2836 324.5529 0001819  83.0432  52.7776 15.96582536  2192
STARLINK-37450          
1 68818U 26089S   26119.25003472 -.02232559  14157-2 -53396-2 0  9996
2 68818  97.2838 324.5538 0001933  76.4877  61.0894 15.96736199  2135
STARLINK-37409          
1 68819U 26089T   26119.25003472 -.02231676  14172-2 -52920-2 0  9995
2 68819  97.2837 324.5546 0001836  82.7135  56.9232 15.96893965  2137
STARLINK-37470          
1 68820U 26089U   26119.25003472 -.02196034  13810-2 -50839-2 0  9990
2 68820  97.2834 324.5569 0001792  85.2142  59.7893 15.97332082  2131
STARLINK-37421          
1 68821U 26089V   26119.25003472 -.02225199  14118-2 -52329-2 0  9994
2 68821  97.2837 324.5559 0001841  83.6620  57.7664 15.97046366  2133
STARLINK-37462          
1 68822U 26089W   26119.25003472 -.02197817  13807-2 -51299-2 0  9999
2 68822  97.2835 324.5563 0001813  82.5134  60.7015 15.97181962  2130
STARLINK-37410          
1 68823U 26089X   26119.25003472 -.02196726  13844-2 -50414-2 0  9997
2 68823  97.2836 324.5583 0001761  82.2910  64.7331 15.97491175  2130
